*******************************************************************************
Ephemeris / WWW_USER Mon Mar 24 11:16:33 2025 Pasadena, USA      / Horizons    
*******************************************************************************
Target body name: (2018 PC20)                     {source: JPL#4}
Center body name: Earth (399)                     {source: DE441}
Center-site name: Mauna Kea
*******************************************************************************
Start time      : A.D. 2018-Aug-22 04:55:00.0000 UT      
Stop  time      : A.D. 2018-Aug-22 15:54:00.0000 UT      
Step-size       : 1 minutes
*******************************************************************************
Target pole/equ : undefined
Target radii    : undefined                                                    
Center geodetic : 204.5278, 19.8260847, 4.21024   {E-lon(deg),Lat(deg),Alt(km)}
Center cylindric: 204.5278, 6006.35451, 2151.0229 {E-lon(deg),Dxy(km),Dz(km)}
Center pole/equ : ITRF93                          {East-longitude positive}
Center radii    : 6378.137, 6378.137, 6356.752 km {Equator_a, b, pole_c}       
Target primary  : Sun
Vis. interferer : MOON (R_eq= 1737.400) km        {source: DE441}
Rel. light bend : Sun                             {source: DE441}
Rel. lght bnd GM: 1.3271E+11 km^3/s^2                                          
Small-body perts: Yes                             {source: SB441-N16}
Atmos refraction: NO (AIRLESS)
RA format       : HMS
Time format     : CAL 
Calendar mode   : Mixed Julian/Gregorian
RTS-only print  : NO       
EOP file        : eop.250321.p250617                                           
EOP coverage    : DATA-BASED 1962-JAN-20 TO 2025-MAR-21. PREDICTS-> 2025-JUN-16
Units conversion: 1 au= 149597870.700 km, c= 299792.458 km/s, 1 day= 86400.0 s 
Table cut-offs 1: Elevation (-90.0deg=NO ),Airmass (>38.000=NO), Daylight (YES)
Table cut-offs 2: Solar elongation (  0.0,180.0=NO ),Local Hour Angle( 0.0=NO )
Table cut-offs 3: RA/DEC angular rate (     0.0=NO )                           
*******************************************************************************
Initial IAU76/J2000 heliocentric ecliptic osculating elements (au, days, deg.):
  EPOCH=  2458343.5 ! 2018-Aug-13.00 (TDB)         Residual RMS= .24519        
   EC= .404352607301711    QR= 1.018354806317198   TP= 2458318.6524357731      
   OM= 139.299704166656    W=  153.5303944744985   IN= 8.986086735514593       
  Equivalent ICRF heliocentric cartesian coordinates (au, au/d):
   X= 8.116079301925467E-01  Y=-6.140581064636024E-01  Z=-2.698058679324596E-01
  VX= 1.436448164656351E-02 VY= 1.329561442287599E-02 VZ= 2.429594529488231E-03
Asteroid physical parameters (km, seconds, rotational period in hours):        
   GM= n.a.                RAD= n.a.               ROTPER= n.a.                
   H= 25.2                 G= .150                 B-V= n.a.                   
                           ALBEDO= n.a.            STYP= n.a.                  
*******************************************************************************
 Date__(UT)__HR:MN     R.A._________(ICRF)_________DEC
******************************************************
$$SOE
 2018-Aug-22 06:58  m  23 43 32.688050 -27 36 50.52052
 2018-Aug-22 06:59  m  23 43 32.865048 -27 36 52.15158
 2018-Aug-22 07:00  m  23 43 33.041886 -27 36 53.78226
 2018-Aug-22 07:01  m  23 43 33.218564 -27 36 55.41256
 2018-Aug-22 07:02  m  23 43 33.395081 -27 36 57.04249
 2018-Aug-22 07:03  m  23 43 33.571438 -27 36 58.67202
 2018-Aug-22 07:04  m  23 43 33.747636 -27 37 00.30117
 2018-Aug-22 07:05  m  23 43 33.923673 -27 37 01.92992
 2018-Aug-22 07:06  m  23 43 34.099551 -27 37 03.55828
 2018-Aug-22 07:07  m  23 43 34.275270 -27 37 05.18624
 2018-Aug-22 07:08  m  23 43 34.450829 -27 37 06.81379
 2018-Aug-22 07:09  m  23 43 34.626230 -27 37 08.44093
 2018-Aug-22 07:10  m  23 43 34.801472 -27 37 10.06766
 2018-Aug-22 07:11  m  23 43 34.976555 -27 37 11.69397
 2018-Aug-22 07:12  m  23 43 35.151480 -27 37 13.31987
 2018-Aug-22 07:13  m  23 43 35.326246 -27 37 14.94534
 2018-Aug-22 07:14  m  23 43 35.500855 -27 37 16.57038
 2018-Aug-22 07:15  m  23 43 35.675306 -27 37 18.19499
 2018-Aug-22 07:16  m  23 43 35.849600 -27 37 19.81917
 2018-Aug-22 07:17  m  23 43 36.023736 -27 37 21.44290
 2018-Aug-22 07:18  m  23 43 36.197715 -27 37 23.06619
 2018-Aug-22 07:19  m  23 43 36.371537 -27 37 24.68904
 2018-Aug-22 07:20  m  23 43 36.545203 -27 37 26.31144
 2018-Aug-22 07:21  m  23 43 36.718712 -27 37 27.93338
 2018-Aug-22 07:22  m  23 43 36.892065 -27 37 29.55486
 2018-Aug-22 07:23  m  23 43 37.065262 -27 37 31.17589
 2018-Aug-22 07:24  m  23 43 37.238303 -27 37 32.79644
 2018-Aug-22 07:25  m  23 43 37.411189 -27 37 34.41653
 2018-Aug-22 07:26  m  23 43 37.583919 -27 37 36.03614
 2018-Aug-22 07:27  m  23 43 37.756494 -27 37 37.65528
 2018-Aug-22 07:28  m  23 43 37.928915 -27 37 39.27394
 2018-Aug-22 07:29  m  23 43 38.101181 -27 37 40.89211
 2018-Aug-22 07:30  m  23 43 38.273293 -27 37 42.50980
 2018-Aug-22 07:31  m  23 43 38.445251 -27 37 44.12699
 2018-Aug-22 07:32  m  23 43 38.617055 -27 37 45.74369
 2018-Aug-22 07:33  m  23 43 38.788706 -27 37 47.35989
 2018-Aug-22 07:34  m  23 43 38.960204 -27 37 48.97559
 2018-Aug-22 07:35  m  23 43 39.131548 -27 37 50.59078
 2018-Aug-22 07:36  m  23 43 39.302740 -27 37 52.20546
 2018-Aug-22 07:37  m  23 43 39.473779 -27 37 53.81963
 2018-Aug-22 07:38  m  23 43 39.644666 -27 37 55.43328
 2018-Aug-22 07:39  m  23 43 39.815402 -27 37 57.04641
 2018-Aug-22 07:40  m  23 43 39.985985 -27 37 58.65902
 2018-Aug-22 07:41  m  23 43 40.156418 -27 38 00.27110
 2018-Aug-22 07:42  m  23 43 40.326699 -27 38 01.88264
 2018-Aug-22 07:43  m  23 43 40.496830 -27 38 03.49365
 2018-Aug-22 07:44  m  23 43 40.666810 -27 38 05.10412
 2018-Aug-22 07:45  m  23 43 40.836640 -27 38 06.71405
 2018-Aug-22 07:46  m  23 43 41.006319 -27 38 08.32344
 2018-Aug-22 07:47  m  23 43 41.175850 -27 38 09.93227
 2018-Aug-22 07:48  m  23 43 41.345231 -27 38 11.54055
 2018-Aug-22 07:49  m  23 43 41.514463 -27 38 13.14827
 2018-Aug-22 07:50  m  23 43 41.683546 -27 38 14.75543
 2018-Aug-22 07:51  m  23 43 41.852481 -27 38 16.36203
 2018-Aug-22 07:52  m  23 43 42.021268 -27 38 17.96806
 2018-Aug-22 07:53  m  23 43 42.189907 -27 38 19.57352
 2018-Aug-22 07:54  m  23 43 42.358399 -27 38 21.17841
 2018-Aug-22 07:55  m  23 43 42.526743 -27 38 22.78272
 2018-Aug-22 07:56  m  23 43 42.694941 -27 38 24.38644
 2018-Aug-22 07:57  m  23 43 42.862992 -27 38 25.98958
 2018-Aug-22 07:58  m  23 43 43.030897 -27 38 27.59214
 2018-Aug-22 07:59  m  23 43 43.198656 -27 38 29.19410
 2018-Aug-22 08:00  m  23 43 43.366269 -27 38 30.79546
 2018-Aug-22 08:01  m  23 43 43.533738 -27 38 32.39623
 2018-Aug-22 08:02  m  23 43 43.701061 -27 38 33.99639
 2018-Aug-22 08:03  m  23 43 43.868240 -27 38 35.59595
 2018-Aug-22 08:04  m  23 43 44.035274 -27 38 37.19489
 2018-Aug-22 08:05  m  23 43 44.202165 -27 38 38.79323
 2018-Aug-22 08:06  m  23 43 44.368912 -27 38 40.39095
 2018-Aug-22 08:07  m  23 43 44.535516 -27 38 41.98805
 2018-Aug-22 08:08  m  23 43 44.701978 -27 38 43.58452
 2018-Aug-22 08:09  m  23 43 44.868296 -27 38 45.18037
 2018-Aug-22 08:10  m  23 43 45.034473 -27 38 46.77559
 2018-Aug-22 08:11  m  23 43 45.200508 -27 38 48.37018
 2018-Aug-22 08:12  m  23 43 45.366401 -27 38 49.96413
 2018-Aug-22 08:13  m  23 43 45.532153 -27 38 51.55744
 2018-Aug-22 08:14  m  23 43 45.697765 -27 38 53.15010
 2018-Aug-22 08:15  m  23 43 45.863236 -27 38 54.74212
 2018-Aug-22 08:16  m  23 43 46.028567 -27 38 56.33349
 2018-Aug-22 08:17  m  23 43 46.193759 -27 38 57.92421
 2018-Aug-22 08:18  m  23 43 46.358811 -27 38 59.51427
 2018-Aug-22 08:19  m  23 43 46.523725 -27 39 01.10367
 2018-Aug-22 08:20  m  23 43 46.688500 -27 39 02.69241
 2018-Aug-22 08:21  m  23 43 46.853137 -27 39 04.28048
 2018-Aug-22 08:22  m  23 43 47.017636 -27 39 05.86788
 2018-Aug-22 08:23  m  23 43 47.181998 -27 39 07.45461
 2018-Aug-22 08:24  m  23 43 47.346223 -27 39 09.04066
 2018-Aug-22 08:25  m  23 43 47.510311 -27 39 10.62603
 2018-Aug-22 08:26  m  23 43 47.674263 -27 39 12.21072
 2018-Aug-22 08:27  m  23 43 47.838079 -27 39 13.79472
 2018-Aug-22 08:28  m  23 43 48.001760 -27 39 15.37804
 2018-Aug-22 08:29  m  23 43 48.165306 -27 39 16.96066
 2018-Aug-22 08:30  m  23 43 48.328717 -27 39 18.54259
 2018-Aug-22 08:31  m  23 43 48.491994 -27 39 20.12381
 2018-Aug-22 08:32  m  23 43 48.655138 -27 39 21.70434
 2018-Aug-22 08:33  m  23 43 48.818148 -27 39 23.28416
 2018-Aug-22 08:34  m  23 43 48.981024 -27 39 24.86327
 2018-Aug-22 08:35  m  23 43 49.143769 -27 39 26.44168
 2018-Aug-22 08:36  m  23 43 49.306381 -27 39 28.01936
 2018-Aug-22 08:37  m  23 43 49.468861 -27 39 29.59633
 2018-Aug-22 08:38  m  23 43 49.631210 -27 39 31.17258
 2018-Aug-22 08:39  m  23 43 49.793428 -27 39 32.74811
 2018-Aug-22 08:40  m  23 43 49.955515 -27 39 34.32291
 2018-Aug-22 08:41  m  23 43 50.117473 -27 39 35.89698
 2018-Aug-22 08:42  m  23 43 50.279300 -27 39 37.47031
 2018-Aug-22 08:43  m  23 43 50.440999 -27 39 39.04291
 2018-Aug-22 08:44  m  23 43 50.602568 -27 39 40.61477
 2018-Aug-22 08:45  m  23 43 50.764010 -27 39 42.18589
 2018-Aug-22 08:46  m  23 43 50.925323 -27 39 43.75627
 2018-Aug-22 08:47  m  23 43 51.086509 -27 39 45.32589
 2018-Aug-22 08:48  m  23 43 51.247568 -27 39 46.89477
 2018-Aug-22 08:49  m  23 43 51.408500 -27 39 48.46289
 2018-Aug-22 08:50  m  23 43 51.569306 -27 39 50.03025
 2018-Aug-22 08:51  m  23 43 51.729986 -27 39 51.59686
 2018-Aug-22 08:52  m  23 43 51.890541 -27 39 53.16270
 2018-Aug-22 08:53  m  23 43 52.050971 -27 39 54.72778
 2018-Aug-22 08:54  m  23 43 52.211276 -27 39 56.29208
 2018-Aug-22 08:55  m  23 43 52.371458 -27 39 57.85562
 2018-Aug-22 08:56  m  23 43 52.531516 -27 39 59.41838
 2018-Aug-22 08:57  m  23 43 52.691451 -27 40 00.98036
 2018-Aug-22 08:58  m  23 43 52.851264 -27 40 02.54157
 2018-Aug-22 08:59  m  23 43 53.010954 -27 40 04.10199
 2018-Aug-22 09:00  m  23 43 53.170523 -27 40 05.66162
